OBJECT_NAME,OBJECT_ID,EPOCH,MEAN_MOTION,ECCENTRICITY,INCLINATION,RA_OF_ASC_NODE,ARG_OF_PERICENTER,MEAN_ANOMALY,EPHEMERIS_TYPE,CLASSIFICATION_TYPE,NORAD_CAT_ID,ELEMENT_SET_NO,REV_AT_EPOCH,BSTAR,MEAN_MOTION_DOT,MEAN_MOTION_DDOT
GEOSCAN 3 (RS92S3),2025-155T,2026-06-07T03:43:42.283200,15.35061556,.00052321,97.4535,127.9182,194.1847,165.9250,0,U,64893,999,7931,.57156622E-3,.19397E-3,0
INNOSAT 3 (RS92S0),2025-155U,2026-06-07T04:46:38.618112,15.43124884,.00046518,97.4487,129.4615,177.7346,182.3923,0,U,64894,999,7942,.8586938E-3,.38063E-3,0
KNACKSAT-2,1998-067XZ,2026-06-07T05:25:32.092896,15.59067140,.00104243,51.6300,344.5496,171.5518,188.5652,0,U,67683,999,1872,.61320379E-3,.48677E-3,0
