GEOSCAN 3 (RS92S3)      
1 64893U 25155T   26158.15535050  .00019397  00000+0  57157-3 0  9990
2 64893  97.4535 127.9182 0005232 194.1847 165.9250 15.35061556 79316
INNOSAT 3 (RS92S0)      
1 64894U 25155U   26158.19905808  .00038063  00000+0  85869-3 0  9999
2 64894  97.4487 129.4615 0004651 177.7346 182.3923 15.43124884 79421
KNACKSAT-2              
1 67683U 98067XZ  26158.22606589  .00048677  00000+0  61320-3 0  9996
2 67683  51.6300 344.5496 0010424 171.5518 188.5652 15.59067140 18722
